{
  "timestamp": "2025-10-04T12:28:05.039749",
  "data": [
    {
      "OBJECT_NAME": "UNKNOWN",
      "OBJECT_ID": "",
      "EPOCH": "2025-10-02T02:08:41.510112",
      "MEAN_MOTION": 12.95051198,
      "ECCENTRICITY": 0.01763895,
      "INCLINATION": 63.459,
      "RA_OF_ASC_NODE": 198.754,
      "ARG_OF_PERICENTER": 4.7941,
      "MEAN_ANOMALY": 355.4698,
      "EPHEMERIS_TYPE": 0,
      "CLASSIFICATION_TYPE": "U",
      "NORAD_CAT_ID": 270328,
      "ELEMENT_SET_NO": 999,
      "REV_AT_EPOCH": 25334,
      "BSTAR": 0.0024808943,
      "MEAN_MOTION_DOT": 6.7e-6,
      "MEAN_MOTION_DDOT": 0
    },
    {
      "OBJECT_NAME": "UNKNOWN",
      "OBJECT_ID": "",
      "EPOCH": "2025-10-02T14:46:56.657856",
      "MEAN_MOTION": 14.36848876,
      "ECCENTRICITY": 0.00018524,
      "INCLINATION": 86.3977,
      "RA_OF_ASC_NODE": 36.9429,
      "ARG_OF_PERICENTER": 91.7248,
      "MEAN_ANOMALY": 268.4161,
      "EPHEMERIS_TYPE": 0,
      "CLASSIFICATION_TYPE": "U",
      "NORAD_CAT_ID": 270329,
      "ELEMENT_SET_NO": 999,
      "REV_AT_EPOCH": 24473,
      "BSTAR": 0.00061223412,
      "MEAN_MOTION_DOT": 1.827e-5,
      "MEAN_MOTION_DDOT": 0
    },
    {
      "OBJECT_NAME": "UNKNOWN",
      "OBJECT_ID": "",
      "EPOCH": "2025-10-02T23:14:20.172192",
      "MEAN_MOTION": 13.41567635,
      "ECCENTRICITY": 0.00397643,
      "INCLINATION": 100.3066,
      "RA_OF_ASC_NODE": 88.3031,
      "ARG_OF_PERICENTER": 120.1119,
      "MEAN_ANOMALY": 240.3959,
      "EPHEMERIS_TYPE": 0,
      "CLASSIFICATION_TYPE": "U",
      "NORAD_CAT_ID": 270330,
      "ELEMENT_SET_NO": 999,
      "REV_AT_EPOCH": 23798,
      "BSTAR": 0.0048938265,
      "MEAN_MOTION_DOT": 2.696e-5,
      "MEAN_MOTION_DDOT": 0
    },
    {
      "OBJECT_NAME": "UNKNOWN",
      "OBJECT_ID": "",
      "EPOCH": "2025-09-24T05:35:20.321376",
      "MEAN_MOTION": 14.49924901,
      "ECCENTRICITY": 0.01034789,
      "INCLINATION": 86.4399,
      "RA_OF_ASC_NODE": 257.137,
      "ARG_OF_PERICENTER": 345.9186,
      "MEAN_ANOMALY": 13.9137,
      "EPHEMERIS_TYPE": 0,
      "CLASSIFICATION_TYPE": "U",
      "NORAD_CAT_ID": 270332,
      "ELEMENT_SET_NO": 999,
      "REV_AT_EPOCH": 7388,
      "BSTAR": 0.0098606644,
      "MEAN_MOTION_DOT": 0.00041041,
      "MEAN_MOTION_DDOT": 0
    },
    {
      "OBJECT_NAME": "UNKNOWN",
      "OBJECT_ID": "",
      "EPOCH": "2025-10-03T15:49:43.753152",
      "MEAN_MOTION": 14.27265535,
      "ECCENTRICITY": 0.02150224,
      "INCLINATION": 97.7191,
      "RA_OF_ASC_NODE": 57.7556,
      "ARG_OF_PERICENTER": 127.4903,
      "MEAN_ANOMALY": 234.6046,
      "EPHEMERIS_TYPE": 0,
      "CLASSIFICATION_TYPE": "U",
      "NORAD_CAT_ID": 270333,
      "ELEMENT_SET_NO": 999,
      "REV_AT_EPOCH": 3761,
      "BSTAR": 0.0060143598,
      "MEAN_MOTION_DOT": 0.00018813,
      "MEAN_MOTION_DDOT": 0
    },
    {
      "OBJECT_NAME": "UNKNOWN",
      "OBJECT_ID": "",
      "EPOCH": "2025-10-02T09:45:29.018304",
      "MEAN_MOTION": 14.13094411,
      "ECCENTRICITY": 0.01859058,
      "INCLINATION": 86.4566,
      "RA_OF_ASC_NODE": 326.2751,
      "ARG_OF_PERICENTER": 52.8494,
      "MEAN_ANOMALY": 308.9507,
      "EPHEMERIS_TYPE": 0,
      "CLASSIFICATION_TYPE": "U",
      "NORAD_CAT_ID": 270334,
      "ELEMENT_SET_NO": 999,
      "REV_AT_EPOCH": 27157,
      "BSTAR": 0.0071423365,
      "MEAN_MOTION_DOT": 0.00015763,
      "MEAN_MOTION_DDOT": 0
    },
    {
      "OBJECT_NAME": "UNKNOWN",
      "OBJECT_ID": "",
      "EPOCH": "2025-09-22T16:02:51.290016",
      "MEAN_MOTION": 14.14384516,
      "ECCENTRICITY": 0.00747105,
      "INCLINATION": 66.6586,
      "RA_OF_ASC_NODE": 50.1248,
      "ARG_OF_PERICENTER": 129.6089,
      "MEAN_ANOMALY": 231.1628,
      "EPHEMERIS_TYPE": 0,
      "CLASSIFICATION_TYPE": "U",
      "NORAD_CAT_ID": 270335,
      "ELEMENT_SET_NO": 999,
      "REV_AT_EPOCH": 22570,
      "BSTAR": 0.0005123711,
      "MEAN_MOTION_DOT": 9.26e-6,
      "MEAN_MOTION_DDOT": 0
    },
    {
      "OBJECT_NAME": "UNKNOWN",
      "OBJECT_ID": "",
      "EPOCH": "2025-10-02T08:54:09.372384",
      "MEAN_MOTION": 14.24895439,
      "ECCENTRICITY": 0.00096438,
      "INCLINATION": 81.2827,
      "RA_OF_ASC_NODE": 258.6405,
      "ARG_OF_PERICENTER": 124.5469,
      "MEAN_ANOMALY": 235.6621,
      "EPHEMERIS_TYPE": 0,
      "CLASSIFICATION_TYPE": "U",
      "NORAD_CAT_ID": 270336,
      "ELEMENT_SET_NO": 999,
      "REV_AT_EPOCH": 22528,
      "BSTAR": 0.0054879594,
      "MEAN_MOTION_DOT": 0.00012849,
      "MEAN_MOTION_DDOT": 0
    },
    {
      "OBJECT_NAME": "UNKNOWN",
      "OBJECT_ID": "",
      "EPOCH": "2025-10-01T11:42:12.209184",
      "MEAN_MOTION": 13.04462714,
      "ECCENTRICITY": 0.00318409,
      "INCLINATION": 90.1334,
      "RA_OF_ASC_NODE": 4.0783,
      "ARG_OF_PERICENTER": 85.6218,
      "MEAN_ANOMALY": 274.8544,
      "EPHEMERIS_TYPE": 0,
      "CLASSIFICATION_TYPE": "U",
      "NORAD_CAT_ID": 270337,
      "ELEMENT_SET_NO": 999,
      "REV_AT_EPOCH": 20860,
      "BSTAR": 0.0036750034,
      "MEAN_MOTION_DOT": 1.189e-5,
      "MEAN_MOTION_DDOT": 0
    },
    {
      "OBJECT_NAME": "UNKNOWN",
      "OBJECT_ID": "",
      "EPOCH": "2025-10-02T03:17:43.941696",
      "MEAN_MOTION": 13.83900091,
      "ECCENTRICITY": 0.01491566,
      "INCLINATION": 99.0825,
      "RA_OF_ASC_NODE": 234.9987,
      "ARG_OF_PERICENTER": 6.1369,
      "MEAN_ANOMALY": 354.1569,
      "EPHEMERIS_TYPE": 0,
      "CLASSIFICATION_TYPE": "U",
      "NORAD_CAT_ID": 270338,
      "ELEMENT_SET_NO": 999,
      "REV_AT_EPOCH": 21719,
      "BSTAR": 0.001897009,
      "MEAN_MOTION_DOT": 2.252e-5,
      "MEAN_MOTION_DDOT": 0
    },
    {
      "OBJECT_NAME": "UNKNOWN",
      "OBJECT_ID": "",
      "EPOCH": "2025-10-01T22:18:09.487008",
      "MEAN_MOTION": 13.83625572,
      "ECCENTRICITY": 0.01467107,
      "INCLINATION": 98.8184,
      "RA_OF_ASC_NODE": 156.8176,
      "ARG_OF_PERICENTER": 319.7186,
      "MEAN_ANOMALY": 39.3173,
      "EPHEMERIS_TYPE": 0,
      "CLASSIFICATION_TYPE": "U",
      "NORAD_CAT_ID": 270340,
      "ELEMENT_SET_NO": 999,
      "REV_AT_EPOCH": 21781,
      "BSTAR": 0.0012846443,
      "MEAN_MOTION_DOT": 1.5e-5,
      "MEAN_MOTION_DDOT": 0
    },
    {
      "OBJECT_NAME": "UNKNOWN",
      "OBJECT_ID": "",
      "EPOCH": "2025-10-01T20:58:35.665824",
      "MEAN_MOTION": 12.01811316,
      "ECCENTRICITY": 0.0914942,
      "INCLINATION": 83.252,
      "RA_OF_ASC_NODE": 330.3332,
      "ARG_OF_PERICENTER": 212.4634,
      "MEAN_ANOMALY": 141.6873,
      "EPHEMERIS_TYPE": 0,
      "CLASSIFICATION_TYPE": "U",
      "NORAD_CAT_ID": 270341,
      "ELEMENT_SET_NO": 999,
      "REV_AT_EPOCH": 18108,
      "BSTAR": 0.0065418636,
      "MEAN_MOTION_DOT": 1.878e-5,
      "MEAN_MOTION_DDOT": 0
    },
    {
      "OBJECT_NAME": "UNKNOWN",
      "OBJECT_ID": "",
      "EPOCH": "2025-10-02T11:29:09.674016",
      "MEAN_MOTION": 14.19581284,
      "ECCENTRICITY": 0.01017583,
      "INCLINATION": 98.6791,
      "RA_OF_ASC_NODE": 183.0981,
      "ARG_OF_PERICENTER": 125.063,
      "MEAN_ANOMALY": 236.0143,
      "EPHEMERIS_TYPE": 0,
      "CLASSIFICATION_TYPE": "U",
      "NORAD_CAT_ID": 270342,
      "ELEMENT_SET_NO": 999,
      "REV_AT_EPOCH": 21247,
      "BSTAR": 0.0053425085,
      "MEAN_MOTION_DOT": 0.00011848,
      "MEAN_MOTION_DDOT": 0
    }
  ]
}
