1 T0328U          25275.08936933  .00000670  00000-0  24809-2 0  9993
2 T0328  63.4590 198.7540 0176390   4.7941 355.4698 12.95051198253345
1 T0329U          25275.61593354  .00001827  00000-0  61223-3 0  9996
2 T0329  86.3977  36.9429 0001852  91.7248 268.4161 14.36848876244739
1 T0330U          25275.96828903  .00002696  00000-0  48938-2 0  9999
2 T0330 100.3066  88.3031 0039764 120.1119 240.3959 13.41567635237983
1 T0332U          25267.23287409  .00041041  00000-0  98607-2 0  9997
2 T0332  86.4399 257.1370 0103479 345.9186  13.9137 14.49924901 73887
1 T0333U          25276.65953418  .00018813  00000-0  60144-2 0  9990
2 T0333  97.7191  57.7556 0215022 127.4903 234.6046 14.27265535 37610
1 T0334U          25275.40658586  .00015763  00000-0  71423-2 0  9994
2 T0334  86.4566 326.2751 0185906  52.8494 308.9507 14.13094411271576
1 T0335U          25265.66864919  .00000926  00000-0  51237-3 0  9998
2 T0335  66.6586  50.1248 0074711 129.6089 231.1628 14.14384516225701
1 T0336U          25275.37094181  .00012849  00000-0  54880-2 0  9997
2 T0336  81.2827 258.6405 0009644 124.5469 235.6621 14.24895439225289
1 T0337U          25274.48764131  .00001189  00000-0  36750-2 0  9999
2 T0337  90.1334   4.0783 0031841  85.6218 274.8544 13.04462714208606
1 T0338U          25275.13731414  .00002252  00000-0  18970-2 0  9997
2 T0338  99.0825 234.9987 0149157   6.1369 354.1569 13.83900091217190
1 T0340U          25274.92927647  .00001500  00000-0  12846-2 0  9992
2 T0340  98.8184 156.8176 0146711 319.7186  39.3173 13.83625572217813
1 T0341U          25274.87402391  .00001878  00000-0  65419-2 0  9993
2 T0341  83.2520 330.3332 0914942 212.4634 141.6873 12.01811316181080
1 T0342U          25275.47858419  .00011848  00000-0  53425-2 0  9999
2 T0342  98.6791 183.0981 0101758 125.0630 236.0143 14.19581284212478
